COMMENT,ORIGINATOR,NORAD_CAT_ID,OBJECT_NAME,OBJECT_TYPE,CLASSIFICATION_TYPE,INTLDES,EPOCH,EPOCH_MICROSECONDS,MEAN_MOTION,ECCENTRICITY,INCLINATION,RA_OF_ASC_NODE,ARG_OF_PERICENTER,MEAN_ANOMALY,EPHEMERIS_TYPE,ELEMENT_SET_NO,REV_AT_EPOCH,BSTAR,MEAN_MOTION_DOT,MEAN_MOTION_DDOT,FILE,TLE_LINE0,TLE_LINE1,TLE_LINE2,OBJECT_ID,OBJECT_NUMBER,SEMIMAJOR_AXIS,PERIOD,APOGEE,PERIGEE,DECAYED
"GENERATED VIA SPACETRACK.ORG API","18 SPCS","48895","SPACEBEE-108","PAYLOAD","U","21059S","2023-09-02 07:29:50","951328","15.36639985","0.0005354","97.605","24.5442","357.2171","2.9042","0","999","12121","0.0011297","0.00040516","0","3995624","0 SPACEBEE-108","1 48895U 21059S   23245.31239527  .00040516  00000-0  11297-2 0  9997","2 48895  97.6050  24.5442 0005354 357.2171   2.9042 15.36639985121216","2021-059S","48895","6834.191","93.711","459.715","452.397","0"
"GENERATED VIA SPACETRACK.ORG API","18 SPCS","48895","SPACEBEE-108","PAYLOAD","U","21059S","2023-09-03 08:30:08","427744","15.3674256","0.0005358","97.6051","25.6214","352.5036","7.6127","0","999","12137","0.0013549","0.00048823","0","3996376","0 SPACEBEE-108","1 48895U 21059S   23246.35426421  .00048823  00000-0  13549-2 0  9994","2 48895  97.6051  25.6214 0005358 352.5036   7.6127 15.36742560121375","2021-059S","48895","6833.887","93.705","459.413","452.090","0"
"GENERATED VIA SPACETRACK.ORG API","18 SPCS","48895","SPACEBEE-108","PAYLOAD","U","21059S","2023-09-03 08:30:08","427744","15.3674256","0.0005358","97.6051","25.6214","352.5036","7.6127","0","999","12137","0.0013549","0.00048823","0","3996586","0 SPACEBEE-108","1 48895U 21059S   23246.35426421  .00048823  00000-0  13549-2 0  9994","2 48895  97.6051  25.6214 0005358 352.5036   7.6127 15.36742560121375","2021-059S","48895","6833.887","93.705","459.413","452.090","0"
"GENERATED VIA SPACETRACK.ORG API","18 SPCS","48895","SPACEBEE-108","PAYLOAD","U","21059S","2023-09-03 22:34:00","840000","15.36788344","0.0005321","97.6051","26.2275","349.9126","10.201","0","999","12146","0.0011126","0.0004009","0","3996958","0 SPACEBEE-108","1 48895U 21059S   23246.94028750  .00040090  00000-0  11126-2 0  9999","2 48895  97.6051  26.2275 0005321 349.9126  10.2010 15.36788344121460","2021-059S","48895","6833.751","93.702","459.252","451.980","0"
"GENERATED VIA SPACETRACK.ORG API","18 SPCS","48895","SPACEBEE-108","PAYLOAD","U","21059S","2023-09-04 07:56:34","952640","15.36818118","0.0005314","97.6052","26.6312","348.512","11.6002","0","999","12152","0.001072","0.00038654","0","3997503","0 SPACEBEE-108","1 48895U 21059S   23247.33096010  .00038654  00000-0  10720-2 0  9999","2 48895  97.6052  26.6312 0005314 348.5120  11.6002 15.36818118121524","2021-059S","48895","6833.663","93.700","459.159","451.896","0"
"GENERATED VIA SPACETRACK.ORG API","18 SPCS","48895","SPACEBEE-108","PAYLOAD","U","21059S","2023-09-05 04:15:26","800992","15.36874135","0.0005297","97.6051","27.5065","345.5241","14.585","0","999","12165","0.00093429","0.00033716","0","3997860","0 SPACEBEE-108","1 48895U 21059S   23248.17739353  .00033716  00000-0  93429-3 0  9998","2 48895  97.6051  27.5065 0005297 345.5241  14.5850 15.36874135121657","2021-059S","48895","6833.496","93.697","458.981","451.742","0"
"GENERATED VIA SPACETRACK.ORG API","18 SPCS","48895","SPACEBEE-108","PAYLOAD","U","21059S","2023-09-05 08:56:42","985536","15.3688951","0.0005304","97.605","27.7085","344.6774","15.4308","0","999","12168","0.00097009","0.00035035","0","3998343","0 SPACEBEE-108","1 48895U 21059S   23248.37271974  .00035035  00000-0  97009-3 0  9994","2 48895  97.6050  27.7085 0005304 344.6774  15.4308 15.36889510121684","2021-059S","48895","6833.451","93.696","458.940","451.691","0"
"GENERATED VIA SPACETRACK.ORG API","18 SPCS","48895","SPACEBEE-108","PAYLOAD","U","21059S","2023-09-06 08:23:01","476096","15.36965212","0.0005348","97.6052","28.7182","339.9349","20.1683","0","999","12183","0.0011207","0.00040616","0","3998916","0 SPACEBEE-108","1 48895U 21059S   23249.34932264  .00040616  00000-0  11207-2 0  9994","2 48895  97.6052  28.7182 0005348 339.9349  20.1683 15.36965212121838","2021-059S","48895","6833.226","93.691","458.746","451.437","0"
"GENERATED VIA SPACETRACK.ORG API","18 SPCS","48895","SPACEBEE-108","PAYLOAD","U","21059S","2023-09-06 08:23:01","476096","15.36965212","0.0005348","97.6052","28.7182","339.9349","20.1683","0","999","12183","0.0011207","0.00040616","0","3999158","0 SPACEBEE-108","1 48895U 21059S   23249.34932264  .00040616  00000-0  11207-2 0  9994","2 48895  97.6052  28.7182 0005348 339.9349  20.1683 15.36965212121838","2021-059S","48895","6833.226","93.691","458.746","451.437","0"
"GENERATED VIA SPACETRACK.ORG API","18 SPCS","48895","SPACEBEE-108","PAYLOAD","U","21059S","2023-09-06 14:38:01","729536","15.36983584","0.000537","97.6048","28.9879","339.4976","20.6052","0","999","12187","0.0010611","0.00038463","0","3999376","0 SPACEBEE-108","1 48895U 21059S   23249.60974224  .00038463  00000-0  10611-2 0  9990","2 48895  97.6048  28.9879 0005370 339.4976  20.6052 15.36983584121875","2021-059S","48895","6833.172","93.690","458.706","451.368","0"
"GENERATED VIA SPACETRACK.ORG API","18 SPCS","48895","SPACEBEE-108","PAYLOAD","U","21059S","2023-09-07 09:23:00","610656","15.37049436","0.0005389","97.6046","29.7957","336.9542","23.1459","0","999","12199","0.0011688","0.00042488","0","3999745","0 SPACEBEE-108","1 48895U 21059S   23250.39097929  .00042488  00000-0  11688-2 0  9993","2 48895  97.6046  29.7957 0005389 336.9542  23.1459 15.37049436121992","2021-059S","48895","6832.977","93.686","458.524","451.160","0"
"GENERATED VIA SPACETRACK.ORG API","18 SPCS","48895","SPACEBEE-108","PAYLOAD","U","21059S","2023-09-07 09:23:00","610656","15.37049436","0.0005389","97.6046","29.7957","336.9542","23.1459","0","999","12199","0.0011688","0.00042488","0","4000037","0 SPACEBEE-108","1 48895U 21059S   23250.39097929  .00042488  00000-0  11688-2 0  9993","2 48895  97.6046  29.7957 0005389 336.9542  23.1459 15.37049436121992","2021-059S","48895","6832.977","93.686","458.524","451.160","0"
"GENERATED VIA SPACETRACK.ORG API","18 SPCS","48895","SPACEBEE-108","PAYLOAD","U","21059S","2023-09-08 08:49:10","433568","15.37127802","0.00054","97.6045","30.8055","333.725","26.3719","0","999","12214","0.0012233","0.00044598","0","4000854","0 SPACEBEE-108","1 48895U 21059S   23251.36748187  .00044598  00000-0  12233-2 0  9991","2 48895  97.6045  30.8055 0005400 333.7250  26.3719 15.37127802122144","2021-059S","48895","6832.745","93.681","458.299","450.920","0"
"GENERATED VIA SPACETRACK.ORG API","18 SPCS","48895","SPACEBEE-108","PAYLOAD","U","21059S","2023-09-08 21:19:05","936160","15.371672","0.0005469","97.6043","31.344","331.0963","28.9977","0","999","12222","0.0011338","0.00041365","0","4001154","0 SPACEBEE-108","1 48895U 21059S   23251.88826315  .00041365  00000-0  11338-2 0  9992","2 48895  97.6043  31.3440 0005469 331.0963  28.9977 15.37167200122222","2021-059S","48895","6832.628","93.679","458.230","450.756","0"
"GENERATED VIA SPACETRACK.ORG API","18 SPCS","48895","SPACEBEE-108","PAYLOAD","U","21059S","2023-09-08 22:52:50","286720","15.37172176","0.0005477","97.6043","31.4113","330.9033","29.1904","0","999","12223","0.0011337","0.00041368","0","4001217","0 SPACEBEE-108","1 48895U 21059S   23251.95335980  .00041368  00000-0  11337-2 0  9995","2 48895  97.6043  31.4113 0005477 330.9033  29.1904 15.37172176122237","2021-059S","48895","6832.613","93.679","458.220","450.736","0"
"GENERATED VIA SPACETRACK.ORG API","18 SPCS","48895","SPACEBEE-108","PAYLOAD","U","21059S","2023-09-09 08:15:15","958944","15.37204687","0.0005495","97.6042","31.8154","329.1706","30.9215","0","999","12229","0.0011568","0.00042262","0","4001770","0 SPACEBEE-108","1 48895U 21059S   23252.34393471  .00042262  00000-0  11568-2 0  9998","2 48895  97.6042  31.8154 0005495 329.1706  30.9215 15.37204687122296","2021-059S","48895","6832.517","93.677","458.136","450.627","0"
"GENERATED VIA SPACETRACK.ORG API","18 SPCS","48895","SPACEBEE-108","PAYLOAD","U","21059S","2023-09-10 09:15:00","688032","15.37298262","0.0005431","97.6045","32.893","325.059","35.0297","0","999","12245","0.0011871","0.00043509","0","4002346","0 SPACEBEE-108","1 48895U 21059S   23253.38542463  .00043509  00000-0  11871-2 0  9992","2 48895  97.6045  32.8930 0005431 325.0590  35.0297 15.37298262122454","2021-059S","48895","6832.240","93.671","457.815","450.394","0"
"GENERATED VIA SPACETRACK.ORG API","18 SPCS","48895","SPACEBEE-108","PAYLOAD","U","21059S","2023-09-10 09:15:00","688032","15.37298262","0.0005431","97.6045","32.893","325.059","35.0297","0","999","12245","0.0011871","0.00043509","0","4002632","0 SPACEBEE-108","1 48895U 21059S   23253.38542463  .00043509  00000-0  11871-2 0  9992","2 48895  97.6045  32.8930 0005431 325.0590  35.0297 15.37298262122454","2021-059S","48895","6832.240","93.671","457.815","450.394","0"
"GENERATED VIA SPACETRACK.ORG API","18 SPCS","48895","SPACEBEE-108","PAYLOAD","U","21059S","2023-09-11 08:40:56","664480","15.37379098","0.0005472","97.6046","33.9032","321.3384","38.7467","0","999","12260","0.0011708","0.0004302","0","4003535","0 SPACEBEE-108","1 48895U 21059S   23254.36176695  .00043020  00000-0  11708-2 0  9998","2 48895  97.6046  33.9032 0005472 321.3384  38.7467 15.37379098122608","2021-059S","48895","6832.000","93.666","457.604","450.127","0"
"GENERATED VIA SPACETRACK.ORG API","18 SPCS","48895","SPACEBEE-108","PAYLOAD","U","21059S","2023-09-11 19:37:01","191360","15.37422963","0.0005491","97.6046","34.3746","319.8185","40.2653","0","999","12267","0.0012974","0.00047778","0","4003936","0 SPACEBEE-108","1 48895U 21059S   23254.81737490  .00047778  00000-0  12974-2 0  9994","2 48895  97.6046  34.3746 0005491 319.8185  40.2653 15.37422963122679","2021-059S","48895","6831.870","93.663","457.486","449.984","0"
